NORAD_CAT_ID,OBJECT_NAME,OBJECT_TYPE,EPOCH,MEAN_MOTION,ECCENTRICITY,INCLINATION,RA_OF_ASC_NODE,ARG_OF_PERICENTER,MEAN_ANOMALY,BSTAR,MEAN_MOTION_DOT,MEAN_MOTION_DDOT,TLE_LINE0,TLE_LINE1,TLE_LINE2,SEMIMAJOR_AXIS,PERIOD,APOGEE,PERIGEE,DECAYED
55293.0,STARLINK-5287,PAYLOAD,2023-09-18 20:31:33,14.9832345,0.0002611,70.0014,140.8158,247.0018,113.0866,6.1695e-05,6.43e-06,0.0,0 STARLINK-5287,1 55293U 23010AA  23261.85525013  .00000643  00000-0  61695-4 0  9997,2 55293  70.0014 140.8158 0002611 247.0018 113.0866 14.98323450 38035,6950.213,96.107,573.893,570.263,0.0
55293.0,STARLINK-5287,PAYLOAD,2023-09-19 18:57:25,14.98333993,0.0002959,70.0002,138.4564,270.4245,89.6574,1.0827e-05,3.6e-07,0.0,0 STARLINK-5287,1 55293U 23010AA  23262.78988353  .00000036  00000-0  10827-4 0  9997,2 55293  70.0002 138.4564 0002959 270.4245  89.6574 14.98333993 37871,6950.181,96.107,574.102,569.989,0.0
55293.0,STARLINK-5287,PAYLOAD,2023-09-20 09:22:39,14.9832801,0.0001883,70.0031,136.9438,283.3437,76.7512,-3.5836e-05,-5.2e-06,0.0,0 STARLINK-5287,1 55293U 23010AA  23263.39073114 -.00000520  00000-0 -35836-4 0  9992,2 55293  70.0031 136.9438 0001883 283.3437  76.7512 14.98328010 37960,6950.199,96.107,573.373,570.755,0.0
55293.0,STARLINK-5287,PAYLOAD,2023-09-20 18:59:28,14.98315158,0.0003069,69.9998,135.9319,272.365,87.7157,-0.00015143,-1.899e-05,0.0,0 STARLINK-5287,1 55293U 23010AA  23263.79129988 -.00001899  00000-0 -15143-3 0  9995,2 55293  69.9998 135.9319 0003069 272.3650  87.7157 14.98315158 38023,6950.239,96.108,574.237,569.971,0.0
55293.0,STARLINK-5287,PAYLOAD,2023-09-20 22:11:44,14.98313778,0.0002628,70.0006,135.5946,263.2876,96.7984,-9.8127e-05,-1.263e-05,0.0,0 STARLINK-5287,1 55293U 23010AA  23263.92482058 -.00001263  00000-0 -98127-4 0  9999,2 55293  70.0006 135.5946 0002628 263.2876  96.7984 14.98313778 38346,6950.243,96.108,573.935,570.282,0.0
55293.0,STARLINK-5287,PAYLOAD,2023-09-21 01:24:00,14.98312203,0.0002658,70.0008,135.2574,264.7185,95.3671,-7.7693e-05,-1.019e-05,0.0,0 STARLINK-5287,1 55293U 23010AA  23264.05834236 -.00001019  00000-0 -77693-4 0  9997,2 55293  70.0008 135.2574 0002658 264.7185  95.3671 14.98312203 38366,6950.248,96.108,573.96,570.266,0.0
55293.0,STARLINK-5287,PAYLOAD,2023-09-21 19:01:28,14.98325789,0.0002837,70.0012,133.4094,261.749,98.3348,-7.1917e-05,-9.51e-06,0.0,0 STARLINK-5287,1 55293U 23010AA  23264.79269558 -.00000951  00000-0 -71917-4 0  9994,2 55293  70.0012 133.4094 0002837 261.7490  98.3348 14.98325789 38179,6950.206,96.107,574.043,570.099,0.0
55293.0,STARLINK-5287,PAYLOAD,2023-09-21 22:13:44,14.98328672,0.0002993,70.0005,133.0717,265.7998,94.2819,-5.1482e-05,-7.07e-06,0.0,0 STARLINK-5287,1 55293U 23010AA  23264.92621358 -.00000707  00000-0 -51482-4 0  9993,2 55293  70.0005 133.0717 0002993 265.7998  94.2819 14.98328672 38496,6950.197,96.107,574.142,569.982,0.0
55293.0,STARLINK-5287,PAYLOAD,2023-09-22 01:26:00,14.98330528,0.0003039,69.9999,132.7337,269.5125,90.5685,-1.7003e-05,-2.96e-06,0.0,0 STARLINK-5287,1 55293U 23010AA  23265.05973163 -.00000296  00000-0 -17003-4 0  9996,2 55293  69.9999 132.7337 0003039 269.5125  90.5685 14.98330528 38511,6950.191,96.107,574.168,569.944,0.0
55293.0,STARLINK-5287,PAYLOAD,2023-09-22 17:27:21,14.98327455,0.0003194,69.9996,131.0505,272.9864,87.093,0.00021895,2.52e-05,0.0,0 STARLINK-5287,1 55293U 23010AA  23265.72732672  .00002520  00000-0  21895-3 0  9991,2 55293  69.9996 131.0505 0003194 272.9864  87.0930 14.98327455 38314,6950.201,96.107,574.286,569.846,0.0
55293.0,STARLINK-5287,PAYLOAD,2023-09-22 22:15:45,14.98331809,0.0003249,69.9995,130.5457,272.4403,87.6384,0.00020269,2.326e-05,0.0,0 STARLINK-5287,1 55293U 23010AA  23265.92760454  .00002326  00000-0  20269-3 0  9990,2 55293  69.9995 130.5457 0003249 272.4403  87.6384 14.98331809 38641,6950.187,96.107,574.31,569.794,0.0
55293.0,STARLINK-5287,PAYLOAD,2023-09-22 23:51:52,14.98333273,0.0003235,69.9994,130.377,273.4755,86.6034,0.00021633,2.489e-05,0.0,0 STARLINK-5287,1 55293U 23010AA  23265.99436316  .00002489  00000-0  21633-3 0  9990,2 55293  69.9994 130.3770 0003235 273.4755  86.6034 14.98333273 38651,6950.183,96.107,574.296,569.799,0.0
55293.0,STARLINK-5287,PAYLOAD,2023-09-23 19:05:30,14.98325941,0.0003188,69.9995,128.3574,273.207,86.8724,-9.842e-06,-2.1e-06,0.0,0 STARLINK-5287,1 55293U 23010AA  23266.79549416 -.00000210  00000-0 -98420-5 0  9997,2 55293  69.9995 128.3574 0003188 273.2070  86.8724 14.98325941 38477,6950.205,96.107,574.286,569.855,0.0
55293.0,STARLINK-5287,PAYLOAD,2023-09-24 14:19:07,14.98334768,0.0003381,69.9987,126.337,268.3029,91.7743,-9.0222e-05,-1.17e-05,0.0,0 STARLINK-5287,1 55293U 23010AA  23267.59660953 -.00001170  00000-0 -90222-4 0  9993,2 55293  69.9987 126.3370 0003381 268.3029  91.7743 14.98334768 38893,6950.178,96.107,574.393,569.693,0.0
55293.0,STARLINK-5287,PAYLOAD,2023-09-24 17:31:23,14.98335403,0.0003385,69.9989,126.0004,267.8984,92.1788,-6.0844e-05,-8.19e-06,0.0,0 STARLINK-5287,1 55293U 23010AA  23267.73012771 -.00000819  00000-0 -60844-4 0  9994,2 55293  69.9989 126.0004 0003385 267.8984  92.1788 14.98335403 38615,6950.176,96.107,574.394,569.689,0.0
55293.0,STARLINK-5287,PAYLOAD,2023-09-24 22:19:48,14.98320693,0.0002947,69.9991,125.4961,278.311,81.7715,-0.00023155,-2.854e-05,0.0,0 STARLINK-5287,1 55293U 23010AA  23267.93042088 -.00002854  00000-0 -23155-3 0  9994,2 55293  69.9991 125.4961 0002947 278.3110  81.7715 14.98320693 38949,6950.222,96.108,574.135,570.038,0.0
55293.0,STARLINK-5287,PAYLOAD,2023-09-24 23:55:54,14.98341033,0.0003693,69.9987,125.3272,260.5656,99.5085,-1.1501e-05,-2.3e-06,0.0,0 STARLINK-5287,1 55293U 23010AA  23267.99715951 -.00000230  00000-0 -11501-4 0  9995,2 55293  69.9987 125.3272 0003693 260.5656  99.5085 14.98341033 38651,6950.159,96.106,574.59,569.457,0.0
55293.0,STARLINK-5287,PAYLOAD,2023-09-25 07:56:35,14.98339174,0.0003251,69.9993,124.4862,271.1055,88.9731,-4.5787e-05,-6.39e-06,0.0,0 STARLINK-5287,1 55293U 23010AA  23268.33096159 -.00000639  00000-0 -45787-4 0  9992,2 55293  69.9993 124.4862 0003251 271.1055  88.9731 14.98339174 39007,6950.165,96.106,574.289,569.77,0.0
55293.0,STARLINK-5287,PAYLOAD,2023-09-25 20:45:39,14.98330657,0.0003144,69.9991,123.1387,268.9372,91.1427,1.8081e-05,1.23e-06,0.0,0 STARLINK-5287,1 55293U 23010AA  23268.86504514  .00000123  00000-0  18081-4 0  9992,2 55293  69.9991 123.1387 0003144 268.9372  91.1427 14.98330657 38789,6950.191,96.107,574.241,569.871,0.0
55293.0,STARLINK-5287,PAYLOAD,2023-09-26 14:23:09,14.98321969,0.0003011,69.9997,121.2892,272.3143,87.7672,-0.00010979,-1.402e-05,0.0,0 STARLINK-5287,1 55293U 23010AA  23269.59941633 -.00001402  00000-0 -10979-3 0  9990,2 55293  69.9997 121.2892 0003011 272.3143  87.7672 14.98321969 39198,6950.218,96.108,574.175,569.99,0.0
55293.0,STARLINK-5287,PAYLOAD,2023-09-26 17:35:25,14.98319445,0.0003391,69.9989,120.9516,274.3923,85.6849,-0.00014546,-1.828e-05,0.0,0 STARLINK-5287,1 55293U 23010AA  23269.73293926 -.00001828  00000-0 -14546-3 0  9997,2 55293  69.9989 120.9516 0003391 274.3923  85.6849 14.98319445 38915,6950.226,96.108,574.447,569.734,0.0
55293.0,STARLINK-5287,PAYLOAD,2023-09-26 20:47:42,14.98318144,0.0003087,69.9996,120.6164,261.2638,98.8172,-0.00014593,-1.833e-05,0.0,0 STARLINK-5287,1 55293U 23010AA  23269.86646002 -.00001833  00000-0 -14593-3 0  9996,2 55293  69.9996 120.6164 0003087 261.2638  98.8172 14.98318144 39235,6950.23,96.108,574.24,569.949,0.0
55293.0,STARLINK-5287,PAYLOAD,2023-09-27 08:00:38,14.98310284,0.0003115,69.9983,119.4358,276.5804,83.5,7.5658e-05,8.09e-06,0.0,0 STARLINK-5287,1 55293U 23010AA  23270.33378392  .00000809  00000-0  75658-4 0  9994,2 55293  69.9983 119.4358 0003115 276.5804  83.5000 14.98310284 39304,6950.254,96.108,574.284,569.954,0.0
55293.0,STARLINK-5287,PAYLOAD,2023-09-27 19:13:35,14.98322369,0.0003301,69.9985,118.2575,268.7624,91.3157,-4.2328e-05,-5.98e-06,0.0,0 STARLINK-5287,1 55293U 23010AA  23270.80109989 -.00000598  00000-0 -42328-4 0  9995,2 55293  69.9985 118.2575 0003301 268.7624  91.3157 14.98322369 39075,6950.216,96.107,574.376,569.787,0.0
55293.0,STARLINK-5287,PAYLOAD,2023-09-28 12:51:02,14.98336102,0.000441,69.9962,116.4017,276.7128,83.3529,0.00026496,3.07e-05,0.0,0 STARLINK-5287,1 55293U 23010AA  23271.53544006  .00003070  00000-0  26496-3 0  9992,2 55293  69.9962 116.4017 0004410 276.7128  83.3529 14.98336102 39187,6950.174,96.107,575.104,568.974,0.0
55293.0,STARLINK-5287,PAYLOAD,2023-09-28 14:27:09,14.98350255,0.0002607,69.9983,116.2395,271.6249,88.4612,0.00041924,4.915e-05,0.0,0 STARLINK-5287,1 55293U 23010AA  23271.60218811  .00004915  00000-0  41924-3 0  9994,2 55293  69.9983 116.2395 0002607 271.6249  88.4612 14.98350255 39499,6950.13,96.106,573.807,570.183,0.0
55293.0,STARLINK-5287,PAYLOAD,2023-09-28 17:39:25,14.98348811,0.0002989,69.9989,115.8998,241.6125,118.4733,0.00040471,4.742e-05,0.0,0 STARLINK-5287,1 55293U 23010AA  23271.73570624  .00004742  00000-0  40471-3 0  9995,2 55293  69.9989 115.8998 0002989 241.6125 118.4733 14.98348811 39215,6950.135,96.106,574.077,569.922,0.0
55293.0,STARLINK-5287,PAYLOAD,2023-09-28 20:51:43,14.98322375,0.0003435,69.9986,115.564,271.4077,88.6688,0.00010341,1.141e-05,0.0,0 STARLINK-5287,1 55293U 23010AA  23271.86925138  .00001141  00000-0  10341-3 0  9996,2 55293  69.9986 115.5640 0003435 271.4077  88.6688 14.98322375 39536,6950.216,96.107,574.469,569.694,0.0
55293.0,STARLINK-5287,PAYLOAD,2023-09-29 00:03:59,14.98321309,0.0003379,69.9986,115.2272,266.1273,93.95,8.3933e-05,9.08e-06,0.0,0 STARLINK-5287,1 55293U 23010AA  23272.00277263  .00000908  00000-0  83933-4 0  9990,2 55293  69.9986 115.2272 0003379 266.1273  93.9500 14.98321309 39257,6950.22,96.108,574.433,569.736,0.0
55293.0,STARLINK-5287,PAYLOAD,2023-09-29 22:29:52,14.98331691,0.0003083,69.9993,112.8705,271.1047,88.9759,3.7664e-05,3.56e-06,0.0,0 STARLINK-5287,1 55293U 23010AA  23272.93740901  .00000356  00000-0  37664-4 0  9993,2 55293  69.9993 112.8705 0003083 271.1047  88.9759 14.98331691 39396,6950.188,96.107,574.195,569.91,0.0
